{"version": 0.6, "generator": "Overpass API 0.7.62.4 2390de5a", "osm3s": {"timestamp_osm_base": "2024-11-26T10:35:14Z", "copyright": "The data included in this document is from www.openstreetmap.org. The data is made available under ODbL."}, "elements": [{"type": "node", "id": 702200189, "lat": 30.2650887, "lon": -97.7464051}, {"type": "node", "id": 702200222, "lat": 30.2648523, "lon": -97.7455997}, {"type": "node", "id": 702200260, "lat": 30.265784, "lon": -97.7461586}, {"type": "node", "id": 702200262, "lat": 30.2655627, "lon": -97.7453384}, {"type": "node", "id": 1152899908, "lat": 30.2680869, "lon": -97.7450198}, {"type": "node", "id": 1152899948, "lat": 30.2676378, "lon": -97.744564}, {"type": "node", "id": 1152899974, "lat": 30.2681621, "lon": -97.7452837}, {"type": "node", "id": 1152899985, "lat": 30.2681269, "lon": -97.745005}, {"type": "node", "id": 1152899995, "lat": 30.2679309, "lon": -97.7444554}, {"type": "node", "id": 1152900005, "lat": 30.267867, "lon": -97.7453931}, {"type": "node", "id": 1152900008, "lat": 30.2681635, "lon": -97.7451375}, {"type": "node", "id": 1152900015, "lat": 30.2681256, "lon": -97.7451515}, {"type": "node", "id": 1481511066, "lat": 30.266103, "lon": -97.7472541}, {"type": "node", "id": 1481511069, "lat": 30.265385, "lon": -97.7475147}, {"type": "node", "id": 1481511071, "lat": 30.2652829, "lon": -97.7469687}, {"type": "node", "id": 1481511072, "lat": 30.2653609, "lon": -97.7467624}, {"type": "node", "id": 1481511073, "lat": 30.2653291, "lon": -97.7466443}, {"type": "node", "id": 1481511074, "lat": 30.2658746, "lon": -97.7464426}, {"type": "node", "id": 1481511086, "lat": 30.2662426, "lon": -97.7460117}, {"type": "node", "id": 1481511087, "lat": 30.2660185, "lon": -97.7460988}, {"type": "node", "id": 1481511088, "lat": 30.2659431, "lon": -97.745829}, {"type": "node", "id": 1481511099, "lat": 30.266254, "lon": -97.7457086}, {"type": "node", "id": 1483653309, "lat": 30.2664299, "lon": -97.7447561}, {"type": "node", "id": 1483653313, "lat": 30.266191, "lon": -97.7448447}, {"type": "node", "id": 1483653324, "lat": 30.2660643, "lon": -97.7443871}, {"type": "node", "id": 1483653328, "lat": 30.2663033, "lon": -97.7442982}, {"type": "node", "id": 2395291352, "lat": 30.2657064, "lon": -97.7449917}, {"type": "node", "id": 2395291353, "lat": 30.2655888, "lon": -97.7445613}, {"type": "node", "id": 2395291357, "lat": 30.2661819, "lon": -97.7448176}, {"type": "node", "id": 2395291359, "lat": 30.2667272, "lon": -97.7458257}, {"type": "node", "id": 2395291361, "lat": 30.2666883, "lon": -97.745684}, {"type": "node", "id": 2395291363, "lat": 30.2663525, "lon": -97.7458068}, {"type": "node", "id": 2395291365, "lat": 30.2663909, "lon": -97.7459495}, {"type": "node", "id": 2395291367, "lat": 30.2666474, "lon": -97.7455409}, {"type": "node", "id": 2395291369, "lat": 30.2663823, "lon": -97.7456381}, {"type": "node", "id": 2395291371, "lat": 30.2666074, "lon": -97.745402}, {"type": "node", "id": 2395291373, "lat": 30.2662772, "lon": -97.7455253}, {"type": "node", "id": 2395291375, "lat": 30.2665613, "lon": -97.7452379}, {"type": "node", "id": 2395291376, "lat": 30.266373, "lon": -97.7453769}, {"type": "node", "id": 2395291377, "lat": 30.2664018, "lon": -97.7454795}, {"type": "node", "id": 2395291378, "lat": 30.2664915, "lon": -97.7449923}, {"type": "node", "id": 2395291379, "lat": 30.2663367, "lon": -97.7450515}, {"type": "node", "id": 3190877886, "lat": 30.2669744, "lon": -97.7466746}, {"type": "node", "id": 3190877888, "lat": 30.2668099, "lon": -97.7461248}, {"type": "node", "id": 3190877889, "lat": 30.2665829, "lon": -97.7465271}, {"type": "node", "id": 3190877890, "lat": 30.2664786, "lon": -97.7467551}, {"type": "node", "id": 3190877891, "lat": 30.2666755, "lon": -97.7468812}, {"type": "node", "id": 3190877892, "lat": 30.2666199, "lon": -97.7469965}, {"type": "node", "id": 3190877893, "lat": 30.2663975, "lon": -97.7470877}, {"type": "node", "id": 3190877894, "lat": 30.2663188, "lon": -97.7470421}, {"type": "node", "id": 3190877895, "lat": 30.2661265, "lon": -97.7464681}, {"type": "node", "id": 3190877896, "lat": 30.2661983, "lon": -97.746334}, {"type": "node", "id": 3190877897, "lat": 30.2662331, "lon": -97.7463099}, {"type": "node", "id": 3354444997, "lat": 30.2667078, "lon": -97.7449022}, {"type": "node", "id": 3354445001, "lat": 30.2667895, "lon": -97.745195}, {"type": "node", "id": 3354445002, "lat": 30.2668068, "lon": -97.7440821}, {"type": "node", "id": 3354445003, "lat": 30.2668097, "lon": -97.7452674}, {"type": "node", "id": 3354445005, "lat": 30.2668345, "lon": -97.7453563}, {"type": "node", "id": 3354445007, "lat": 30.2668515, "lon": -97.7454171}, {"type": "node", "id": 3354445009, "lat": 30.2668698, "lon": -97.7448416}, {"type": "node", "id": 3354445010, "lat": 30.2668887, "lon": -97.7455506}, {"type": "node", "id": 3354445011, "lat": 30.2669055, "lon": -97.7456108}, {"type": "node", "id": 3354445012, "lat": 30.2669114, "lon": -97.7449908}, {"type": "node", "id": 3354445014, "lat": 30.2669302, "lon": -97.7450582}, {"type": "node", "id": 3354445015, "lat": 30.2669422, "lon": -97.7445644}, {"type": "node", "id": 3354445016, "lat": 30.2669446, "lon": -97.7457509}, {"type": "node", "id": 3354445018, "lat": 30.2669514, "lon": -97.7451344}, {"type": "node", "id": 3354445022, "lat": 30.2670383, "lon": -97.7447786}, {"type": "node", "id": 3354445023, "lat": 30.2670578, "lon": -97.744936}, {"type": "node", "id": 3354445025, "lat": 30.2670766, "lon": -97.7450034}, {"type": "node", "id": 3354445026, "lat": 30.2670799, "lon": -97.7449277}, {"type": "node", "id": 3354445029, "lat": 30.2670884, "lon": -97.7453285}, {"type": "node", "id": 3354445031, "lat": 30.2671179, "lon": -97.7450722}, {"type": "node", "id": 3354445033, "lat": 30.2671256, "lon": -97.745462}, {"type": "node", "id": 3354445034, "lat": 30.2671381, "lon": -97.7451446}, {"type": "node", "id": 3354445035, "lat": 30.2671629, "lon": -97.7452335}, {"type": "node", "id": 3354445036, "lat": 30.2671798, "lon": -97.7452943}, {"type": "node", "id": 3354445038, "lat": 30.2672326, "lon": -97.7439216}, {"type": "node", "id": 3354445039, "lat": 30.267238, "lon": -97.7454864}, {"type": "node", "id": 3354445041, "lat": 30.2672515, "lon": -97.7453273}, {"type": "node", "id": 3354445042, "lat": 30.2672771, "lon": -97.7456265}, {"type": "node", "id": 3354445043, "lat": 30.267289, "lon": -97.7454619}, {"type": "node", "id": 3354445044, "lat": 30.2673295, "lon": -97.7456069}, {"type": "node", "id": 3354445045, "lat": 30.2673677, "lon": -97.7444056}, {"type": "node", "id": 3354445046, "lat": 30.2675868, "lon": -97.7452019}, {"type": "node", "id": 3354445047, "lat": 30.2676244, "lon": -97.7453365}, {"type": "node", "id": 3354445048, "lat": 30.2676648, "lon": -97.7454815}, {"type": "node", "id": 3354471226, "lat": 30.267537, "lon": -97.7463396}, {"type": "node", "id": 3354471227, "lat": 30.2675571, "lon": -97.7464104}, {"type": "node", "id": 3354471229, "lat": 30.2676233, "lon": -97.7466807}, {"type": "node", "id": 3354471233, "lat": 30.2678682, "lon": -97.7462142}, {"type": "node", "id": 3354471234, "lat": 30.2678882, "lon": -97.746285}, {"type": "node", "id": 3354471236, "lat": 30.2679553, "lon": -97.7465695}, {"type": "node", "id": 5040233205, "lat": 30.2670052, "lon": -97.7460008}, {"type": "node", "id": 5040233206, "lat": 30.2672449, "lon": -97.7468272}, {"type": "node", "id": 5040233207, "lat": 30.2675678, "lon": -97.746706}, {"type": "node", "id": 5040233208, "lat": 30.26734, "lon": -97.7458761}, {"type": "node", "id": 5040249666, "lat": 30.2674358, "lon": -97.7446728}, {"type": "node", "id": 5040249667, "lat": 30.2670957, "lon": -97.7447987}, {"type": "node", "id": 5040334675, "lat": 30.2659105, "lon": -97.7465595}, {"type": "node", "id": 5040334677, "lat": 30.2655341, "lon": -97.746021}, {"type": "node", "id": 5040334678, "lat": 30.2651173, "lon": -97.745785}, {"type": "node", "id": 5040334686, "lat": 30.2658762, "lon": -97.747336}, {"type": "node", "id": 5040334694, "lat": 30.2652239, "lon": -97.7461443}, {"type": "node", "id": 5040334698, "lat": 30.2654276, "lon": -97.7456617}, {"type": "node", "id": 7313191251, "lat": 30.2673366, "lon": -97.7467928, "tags": {"access": "yes", "entrance": "yes", "level": "1", "wheelchair": "yes"}}, {"type": "node", "id": 7313191252, "lat": 30.2674863, "lon": -97.7467366, "tags": {"access": "private", "amenity": "parking_entrance"}}, {"type": "node", "id": 7313191253, "lat": 30.2670306, "lon": -97.7460902}, {"type": "node", "id": 7427658656, "lat": 30.26579, "lon": -97.7473672, "tags": {"amenity": "parking_entrance"}}, {"type": "node", "id": 7935850010, "lat": 30.2677313, "lon": -97.7457301}, {"type": "node", "id": 7935850011, "lat": 30.2673996, "lon": -97.745855}, {"type": "node", "id": 8387822649, "lat": 30.2675149, "lon": -97.7465167}, {"type": "node", "id": 8387822650, "lat": 30.2671919, "lon": -97.7466379}, {"type": "node", "id": 8623768113, "lat": 30.2652358, "lon": -97.7469847}, {"type": "node", "id": 8859045514, "lat": 30.2666418, "lon": -97.7446775}, {"type": "node", "id": 8859045515, "lat": 30.2665064, "lon": -97.7441952}, {"type": "node", "id": 8859045516, "lat": 30.2660949, "lon": -97.7451555}, {"type": "node", "id": 8859057417, "lat": 30.2657839, "lon": -97.7452753}, {"type": "node", "id": 8942600626, "lat": 30.2652323, "lon": -97.7468024}, {"type": "node", "id": 8942600627, "lat": 30.2655076, "lon": -97.7474692}, {"type": "node", "id": 9414594813, "lat": 30.2661642, "lon": -97.7457438}, {"type": "node", "id": 9414594814, "lat": 30.2663406, "lon": -97.7459733}, {"type": "node", "id": 9414594815, "lat": 30.2662623, "lon": -97.7457053}, {"type": "node", "id": 9414594816, "lat": 30.2656979, "lon": -97.7449607}, {"type": "node", "id": 9414607020, "lat": 30.2661634, "lon": -97.74475}, {"type": "node", "id": 9414607022, "lat": 30.2658375, "lon": -97.7449437}, {"type": "node", "id": 9414607023, "lat": 30.2657448, "lon": -97.7449777}, {"type": "node", "id": 9414607027, "lat": 30.2656537, "lon": -97.7447989}, {"type": "node", "id": 9414607028, "lat": 30.2657027, "lon": -97.7445195}, {"type": "node", "id": 9414607030, "lat": 30.2656012, "lon": -97.7446041}, {"type": "node", "id": 9416656295, "lat": 30.2664446, "lon": -97.7457735}, {"type": "node", "id": 9416656296, "lat": 30.2663148, "lon": -97.7456628}, {"type": "node", "id": 9416656297, "lat": 30.2664084, "lon": -97.745735}, {"type": "node", "id": 9416656298, "lat": 30.2664319, "lon": -97.7457265}, {"type": "node", "id": 9416656299, "lat": 30.2665277, "lon": -97.7451193}, {"type": "node", "id": 9416656300, "lat": 30.2664241, "lon": -97.7453577}, {"type": "node", "id": 9416656301, "lat": 30.2664066, "lon": -97.7452966}, {"type": "node", "id": 9416656302, "lat": 30.2663116, "lon": -97.7453327}, {"type": "node", "id": 9416656303, "lat": 30.2662415, "lon": -97.7450879}, {"type": "node", "id": 9416656304, "lat": 30.2662803, "lon": -97.7452238}, {"type": "node", "id": 9416656305, "lat": 30.2662025, "lon": -97.7452535}, {"type": "node", "id": 9416656306, "lat": 30.2661637, "lon": -97.7451177}, {"type": "node", "id": 9416656307, "lat": 30.2663729, "lon": -97.7451785}, {"type": "node", "id": 9659270129, "lat": 30.2678462, "lon": -97.7461392}, {"type": "node", "id": 9659270130, "lat": 30.2675144, "lon": -97.746264}, {"type": "node", "id": 9659270131, "lat": 30.2676551, "lon": -97.746667}, {"type": "node", "id": 9659270132, "lat": 30.2676242, "lon": -97.7466484}, {"type": "node", "id": 9659270133, "lat": 30.2679427, "lon": -97.7465632}, {"type": "node", "id": 9659270134, "lat": 30.2679563, "lon": -97.7465262}, {"type": "node", "id": 9659270135, "lat": 30.26797, "lon": -97.746533}, {"type": "node", "id": 9659270136, "lat": 30.2679745, "lon": -97.7465495}, {"type": "node", "id": 9659270137, "lat": 30.267618, "lon": -97.7466625}, {"type": "node", "id": 9659270138, "lat": 30.2679689, "lon": -97.7465635}, {"type": "node", "id": 9659270139, "lat": 30.2676496, "lon": -97.746681}, {"type": "node", "id": 9659270140, "lat": 30.2676359, "lon": -97.746687}, {"type": "node", "id": 10011894197, "lat": 30.2672372, "lon": -97.7459144}, {"type": "node", "id": 10011894199, "lat": 30.2670437, "lon": -97.7461352, "tags": {"access": "yes", "entrance": "main", "level": "0", "wheelchair": "yes"}}, {"type": "node", "id": 10281129698, "lat": 30.2663096, "lon": -97.7462887}, {"type": "node", "id": 10711376537, "lat": 30.2667359, "lon": -97.7446421, "tags": {"addr:city": "Austin", "addr:housenumber": "405", "addr:postcode": "78701", "addr:state": "TX", "addr:street": "Colorado Street", "entrance": "parking", "fee": "yes", "level": "0", "name": "405 Colorado Parking Entrance", "website": "https://www.secureparkingusa.com/parking-location/405-colorado-garage"}}, {"type": "node", "id": 10711380643, "lat": 30.2678119, "lon": -97.746017, "tags": {"door": "hinged", "entrance": "main"}}, {"type": "node", "id": 12179104660, "lat": 30.2662111, "lon": -97.7460469}, {"type": "node", "id": 12179104661, "lat": 30.2662484, "lon": -97.7460328}, {"type": "node", "id": 12179104662, "lat": 30.2662543, "lon": -97.7460537}, {"type": "node", "id": 12179104663, "lat": 30.2662169, "lon": -97.7460678}, {"type": "way", "id": 55932524, "nodes": [702200189, 702200222, 702200262, 702200260, 702200189]}, {"type": "way", "id": 99725033, "nodes": [1152900005, 1152899974, 1152900015, 1152900008, 1152899985, 1152899908, 1152899995, 1152899948, 1152900005], "tags": {"access": "yes", "amenity": "parking", "building": "parking", "building:levels": "7", "fee": "yes", "garage": "yes", "name": "Chase Tower Parking Garage", "parking": "multi-storey"}}, {"type": "way", "id": 134807228, "nodes": [1481511066, 5040334686, 7427658656, 8942600627, 1481511069, 8623768113, 1481511071, 8942600626, 1481511072, 1481511073, 1481511074, 5040334675, 1481511066], "tags": {"addr:city": "Austin", "addr:housenumber": "200", "addr:postcode": "78701", "addr:state": "TX", "addr:street": "Lavaca Street", "brand": "W Hotels", "brand:wikidata": "Q7958488", "building": "yes", "email": "waustinreservations@whotels.com", "fax": "+1 512-542-3265", "name": "W Austin", "phone": "+1 512-542-3600", "short_name": "W", "smoking": "no", "tourism": "hotel", "website": "https://www.marriott.com/hotels/travel/auswh-w-austin/", "wheelchair": "yes", "wikidata": "Q7958469"}}, {"type": "way", "id": 134807229, "nodes": [1481511086, 1481511087, 1481511088, 9414594813, 1481511086], "tags": {"addr:housenumber": "301", "addr:postcode": "78701", "addr:street": "Lavaca Street", "amenity": "restaurant", "building": "retail", "name": "Bob's Steak & Chop House", "opening_hours": "Mo,Tu 16:30-22:00; We,Th 16:30-23:00; Fr,Sa 16:30-24:00"}}, {"type": "way", "id": 135049613, "nodes": [1483653309, 1483653313, 2395291357, 9414607020, 1483653324, 1483653328, 1483653309], "tags": {"building": "yes"}}, {"type": "way", "id": 231123152, "nodes": [2395291352, 9414594816, 9414607027, 9414607030, 2395291353, 9414607028, 1483653324, 9414607020, 2395291357, 9414607022, 9414607023, 2395291352], "tags": {"addr:housenumber": "303", "addr:postcode": "78701", "addr:street": "Colorado Street", "building": "commercial", "building:levels": "29", "commercial": "office", "name": "Colorado Tower", "website": "https://coloradotower.com/"}}, {"type": "way", "id": 231123153, "nodes": [2395291359, 2395291361, 9416656295, 2395291363, 2395291365, 2395291359], "tags": {"addr:city": "Austin", "addr:housenumber": "315", "addr:postcode": "78701", "addr:state": "TX", "addr:street": "Lavaca Street", "amenity": "events_venue", "building": "yes", "check_date": "2024-09-30", "name": "The Riley Building", "website": "https://www.therileybuilding.com/"}}, {"type": "way", "id": 231123155, "nodes": [2395291361, 2395291367, 2395291369, 9416656297, 9416656298, 9416656295, 2395291361], "tags": {"addr:city": "Austin", "addr:housenumber": "217", "addr:postcode": "78701", "addr:state": "TX", "addr:street": "West 4th Street", "air_conditioning": "yes", "alt_name": "Rain", "amenity": "bar", "building": "yes", "email": "contactus@rainon4th.com", "lgbtq": "primary", "name": "Rain on 4th", "phone": "+1-512-494-1150", "website": "https://www.rainon4th.com/"}}, {"type": "way", "id": 231123157, "nodes": [2395291367, 2395291371, 2395291377, 2395291373, 9416656296, 2395291369, 2395291367], "tags": {"building": "retail", "note": "vacant (2022-01-13)"}}, {"type": "way", "id": 231123159, "nodes": [2395291371, 2395291375, 9416656301, 9416656300, 2395291376, 2395291377, 2395291371], "tags": {"addr:city": "Austin", "addr:housenumber": "211", "addr:postcode": "78701", "addr:state": "TX", "addr:street": "West 4th Street", "air_conditioning": "yes", "amenity": "nightclub", "building": "yes", "lgbtq": "primary", "name": "Oilcan Harry's", "website": "https://www.oilcanharrys.com/"}}, {"type": "way", "id": 231123161, "nodes": [9416656299, 2395291378, 2395291379, 9416656307, 9416656299], "tags": {"addr:city": "Austin", "addr:housenumber": "318", "addr:postcode": "78701", "addr:state": "TX", "addr:street": "Colorado Street", "air_conditioning": "yes", "amenity": "nightclub", "building": "yes", "min_age": "21", "name": "Neon Grotto"}}, {"type": "way", "id": 313180848, "nodes": [3190877886, 10281129698, 3190877888, 3190877886], "tags": {"addr:housenumber": "333", "building": "commercial", "building:levels": "8", "name": "William P. Hobby Building", "office": "government"}}, {"type": "way", "id": 313180849, "nodes": [3190877889, 3190877890, 3190877891, 3190877892, 3190877893, 3190877894, 3190877895, 3190877896, 3190877897, 3190877889], "tags": {"addr:housenumber": "333", "addr:street": "Guadalupe Street", "building": "commercial", "building:levels": "13", "name": "William P. Hobby Building", "office": "government"}}, {"type": "way", "id": 328631273, "nodes": [3354445048, 3354445047, 3354445043, 3354445044, 3354445048], "tags": {"addr:housenumber": "213", "addr:postcode": "78701", "addr:street": "West 5th Street", "building": "retail", "source:geometry": "Bing"}}, {"type": "way", "id": 328631274, "nodes": [3354445009, 3354445012, 3354445023, 3354445026, 3354445022, 3354445009], "tags": {"building": "yes", "source:geometry": "Bing"}}, {"type": "way", "id": 328631276, "nodes": [3354445034, 3354445031, 3354445001, 3354445003, 3354445034], "tags": {"addr:city": "Austin", "addr:housenumber": "208", "addr:postcode": "78701", "addr:state": "TX", "addr:street": "West 4th Street", "amenity": "restaurant", "building": "yes", "cuisine": "french", "name": "P\u00e9ch\u00e9", "phone": "+15123798249", "website": "http://www.pecheaustin.com/"}}, {"type": "way", "id": 328631279, "nodes": [3354445015, 3354445045, 3354445038, 3354445002, 3354445015], "tags": {"addr:city": "Austin", "addr:housenumber": "415", "addr:postcode": "78701", "addr:state": "TX", "addr:street": "Colorado Street", "architect": "Ziegler Cooper Architects", "building": "construction", "building:levels": "47", "check_date": "2024-09-11", "construction": "residential", "height": "195.072", "name": "415 Colorado"}}, {"type": "way", "id": 328631281, "nodes": [3354445043, 3354445047, 3354445046, 3354445041, 3354445043], "tags": {"addr:housenumber": "209", "addr:postcode": "78701", "addr:street": "West 5th Street", "building": "yes", "source:geometry": "Bing"}}, {"type": "way", "id": 328631283, "nodes": [3354445042, 3354445039, 3354445011, 3354445016, 3354445042], "tags": {"building": "retail", "building:levels": "1", "source:geometry": "Bing"}}, {"type": "way", "id": 328631289, "nodes": [3354445010, 3354445033, 3354445029, 3354445007, 3354445010], "tags": {"addr:city": "Austin", "addr:housenumber": "214", "addr:postcode": "78701", "addr:state": "TX", "addr:street": "West 4th Street", "addr:unit": "A", "amenity": "pub", "building": "retail", "building:levels": "1", "name": "The Pub", "opening_hours": "Su-Th 11:00-00:00; Fr-Sa 11:00-02:00", "source:geometry": "Bing"}}, {"type": "way", "id": 328631294, "nodes": [3354445012, 3354445014, 3354445025, 3354445023, 3354445012], "tags": {"addr:housenumber": "404", "addr:postcode": "78701", "addr:street": "Colorado Street", "building": "yes", "source:geometry": "Bing"}}, {"type": "way", "id": 328631295, "nodes": [3354445007, 3354445029, 3354445036, 3354445035, 3354445005, 3354445007], "tags": {"addr:city": "Austin", "addr:housenumber": "214", "addr:postcode": "78701", "addr:state": "TX", "addr:street": "West 4th Street", "addr:unit": "B", "amenity": "bar", "building": "retail", "building:levels": "1", "name": "DuMont's Down Low", "source:geometry": "Bing"}}, {"type": "way", "id": 328631296, "nodes": [3354445001, 3354445018, 3354445014, 3354445012, 3354445009, 3354444997, 3354445001], "tags": {"addr:city": "Austin", "addr:housenumber": "400", "addr:postcode": "78701", "addr:state": "TX", "addr:street": "Colorado Street", "air_conditioning": "yes", "amenity": "bar", "building": "yes", "check_date": "2023-07-27", "email": "estelle@nocohospitalityatx.com", "name": "Estelle's Social Lounge", "opening_hours": "Tu-We 16:00-00:00; Th-Fr 16:00-02:00; Sa 12:00-02:00; Su 12:00-00:00", "phone": "+15129007626", "source:geometry": "Bing", "website": "https://www.estellesatx.com/", "website:menu": "https://www.estellesatx.com/the-menu"}}, {"type": "way", "id": 328634449, "nodes": [3354471234, 3354471227, 9659270132, 9659270137, 3354471229, 9659270140, 9659270139, 9659270131, 9659270133, 3354471236, 9659270138, 9659270136, 9659270135, 9659270134, 3354471234], "tags": {"building": "apartments", "building:levels": "12", "name": "The Plaza on Republic Square", "source:geometry": "Bing"}}, {"type": "way", "id": 328634458, "nodes": [3354471233, 3354471226, 3354471227, 3354471234, 3354471233], "tags": {"addr:city": "Austin", "addr:housenumber": "307", "addr:postcode": "78701", "addr:state": "TX", "addr:street": "West 5th Street", "amenity": "bar", "building": "yes", "building:levels": "2", "min_age": "21", "name": "The Roosevelt Room", "opening_hours": "Su-We 16:00-0:00; Th-Sa 16:00-02:00", "source:geometry": "Bing"}}, {"type": "way", "id": 516276237, "nodes": [8387822650, 5040233206, 7313191251, 7313191252, 5040233207, 8387822649, 8387822650], "tags": {"addr:city": "Austin", "addr:housenumber": "401", "addr:postcode": "78701", "addr:state": "TX", "addr:street": "Guadalupe Street", "building": "residential", "landuse": "residential", "name": "Gables Republic Square", "operator": "Gables Residential", "residential": "apartments"}}, {"type": "way", "id": 516278443, "nodes": [3354445046, 3354445041, 5040249667, 5040249666, 3354445046], "tags": {"addr:city": "Austin", "addr:housenumber": "201", "addr:postcode": "78701", "addr:state": "TX", "addr:street": "West 5th Street", "building": "yes", "building:levels": "18", "name": "5th and Colorado"}}, {"type": "way", "id": 516289345, "nodes": [5040334677, 5040334698, 5040334678, 5040334694, 5040334677]}, {"type": "way", "id": 850669088, "nodes": [9659270129, 10711380643, 7935850010, 7935850011, 9659270130, 9659270129], "tags": {"addr:city": "Austin", "addr:housenumber": "305", "addr:postcode": "78701", "addr:state": "TX", "addr:street": "West 5th Street", "building": "apartments", "building:flats": "310", "building:levels": "44", "check_date": "2022-02-09", "construction": "residential", "height": "157.28", "name": "Hanover Republic Square"}}, {"type": "way", "id": 903084328, "nodes": [8387822649, 5040233208, 10011894197, 5040233205, 7313191253, 10011894199, 8387822650, 8387822649], "tags": {"addr:city": "Austin", "addr:housenumber": "401", "addr:postcode": "78701", "addr:state": "TX", "addr:street": "Guadalupe Street", "building": "yes", "building:levels": "24", "name": "Hotel ZaZa & Residences"}}, {"type": "way", "id": 957405851, "nodes": [3354445015, 10711376537, 8859045514, 8859045515, 3354445002, 3354445015], "tags": {"addr:city": "Austin", "addr:housenumber": "405", "addr:postcode": "78701", "addr:state": "TX", "addr:street": "Colorado Street", "building": "office", "building:levels": "25", "height": "110.6", "name": "405 Colorado", "smoking": "no"}}, {"type": "way", "id": 957405852, "nodes": [1481511099, 8859045516, 8859057417, 1481511088, 9414594813, 1481511099], "tags": {"addr:city": "Austin", "addr:housenumber": "300", "addr:postcode": "78701", "addr:state": "TX", "addr:street": "Colorado Street", "architect": "Pickard Chilton", "building": "office", "building:levels": "32", "height": "135.9", "name": "300 Colorado", "smoking": "no"}}, {"type": "way", "id": 1020753276, "nodes": [1481511086, 9414594814, 9414594815, 1481511099, 9414594813, 1481511086], "tags": {"addr:city": "Austin", "addr:housenumber": "301", "addr:postcode": "78701", "addr:state": "TX", "addr:street": "Lavaca Street", "addr:unit": "200", "amenity": "restaurant", "building": "yes", "cuisine": "pizza", "name": "DeSano Pizzeria Napoletana"}}, {"type": "way", "id": 1020979628, "nodes": [2395291375, 9416656299, 9416656307, 9416656301, 2395291375], "tags": {"building": "retail", "note": "vacant (2022-01-13)"}}, {"type": "way", "id": 1020979629, "nodes": [9416656301, 9416656302, 9416656304, 9416656303, 2395291379, 9416656307, 9416656301], "tags": {"addr:city": "Austin", "addr:housenumber": "310", "addr:postcode": "78701", "addr:state": "TX", "addr:street": "Colorado Street", "addr:unit": "B", "air_conditioning": "yes", "amenity": "nightclub", "building": "yes", "name": "Coconut Club", "opening_hours": "We-Su 21:00-02:00"}}, {"type": "way", "id": 1020979630, "nodes": [9416656304, 9416656305, 9416656306, 9416656303, 9416656304], "tags": {"addr:city": "Austin", "addr:housenumber": "310", "addr:postcode": "78701", "addr:state": "TX", "addr:street": "Colorado Street", "addr:unit": "A", "air_conditioning": "yes", "amenity": "cafe", "building": "yes", "cuisine": "venezuelan", "name": "Cuatro Gato", "outdoor_seating": "yes"}}, {"type": "way", "id": 1051117928, "nodes": [3354471226, 9659270130, 9659270129, 3354471233, 3354471226], "tags": {"addr:city": "Austin", "addr:housenumber": "307", "addr:postcode": "78701", "addr:state": "TX", "addr:street": "West 5th Street", "amenity": "events_venue", "building": "yes", "building:levels": "2", "name": "The Eleanor", "phone": "+15124944094", "website": "https://www.theeleanoratx.com/"}}, {"type": "way", "id": 1135532954, "nodes": [3354445005, 3354445003, 3354445034, 3354445035, 3354445005], "tags": {"addr:city": "Austin", "addr:housenumber": "208", "addr:postcode": "78701", "addr:state": "TX", "addr:street": "West 4th Street", "addr:unit": "C", "amenity": "bar", "building": "yes", "name": "Cedar Street Courtyard", "opening_hours": "Mo-Fr 17:00-02:00; PH closed"}}, {"type": "way", "id": 1315783494, "nodes": [12179104663, 12179104662, 12179104661, 12179104660, 12179104663], "tags": {"amenity": "shelter", "building": "roof", "shelter_type": "public_transport"}}, {"type": "relation", "id": 7480583, "members": [{"type": "way", "ref": 55932524, "role": "outer"}, {"type": "way", "ref": 516289345, "role": "inner"}], "tags": {"addr:housenumber": "8", "building": "apartments", "name": "AMLI Downtown", "type": "multipolygon"}}]}